0 TITAN 3C TRANSTAGE DEB
1 26782U 65108BA  13282.50935094  .00024181  00000-0  24533-2 0  7966
2 26782 026.4554 327.5522 4184578 038.9363 047.1996 07.05916374359160
0 TITAN 3C TRANSTAGE DEB
1 26782U 65108BA  13283.50007302  .00024321  00000-0  24688-2 0  7977
2 26782 026.4555 325.8878 4184306 041.7280 044.9958 07.05960300359234
0 TITAN 3C TRANSTAGE DEB
1 26782U 65108BA  13285.48134319  .00022560  00000-0  22813-2 0  7987
2 26782 026.4552 322.5579 4184070 047.3133 040.6054 07.06040249359377
0 TITAN 3C TRANSTAGE DEB
1 26782U 65108BA  13287.31223451  .00024148  00000-0  24305-2 0  7990
2 26782 026.4545 319.4760 4183927 052.4847 014.5350 07.06113102359508
0 TITAN 3C TRANSTAGE DEB
1 26782U 65108BA  13288.45405641  .00030508  00000-0  30648-2 0  8006
2 26782 026.4538 317.5517 4183658 055.7162 037.1955 07.06181168359583
0 TITAN 3C TRANSTAGE DEB
1 26782U 65108BA  13289.44354534  .00028930  00000-0  28975-2 0  8017
2 26782 026.4531 315.8901 4183542 058.5078 032.8261 07.06231440359652
0 TITAN 3C TRANSTAGE DEB
1 26782U 65108BA  13290.43399587  .00029602  00000-0  29613-2 0  8023
2 26782 026.4531 314.2271 4183350 061.3016 031.0756 07.06277545359720
0 TITAN 3C TRANSTAGE DEB
1 26782U 65108BA  13291.42434479  .00026541  00000-0  26571-2 0  8033
2 26782 026.4530 312.5607 4183037 064.1016 029.2395 07.06325687359792
0 TITAN 3C TRANSTAGE DEB
1 26782U 65108BA  13292.26536161  .00024038  00000-0  24104-2 0  8047
2 26782 026.4530 311.1458 4182747 066.4787 007.8232 07.06361541359856
0 TITAN 3C TRANSTAGE DEB
1 26782U 65108BA  13294.09866072  .00024727  00000-0  24928-2 0  8057
2 26782 026.4527 308.0612 4182033 071.6606 350.0122 07.06437500359989
0 TITAN 3C TRANSTAGE DEB
1 26782U 65108BA  13295.38537635  .00025582  00000-0  25880-2 0  8069
2 26782 026.4527 305.8960 4181552 075.2964 022.4982 07.06489633360072
